{
  "type": "FeatureCollection",
  "features": [
    {
      "type": "Feature",
      "properties": {
        "norad_id": 39773,
        "name": "EUTELSAT 3B",
        "group": "eutelsat",
        "lat": -0.06686364725005353,
        "lon": -70.72855741678401,
        "alt_km": 35776.36866186045,
        "timestamp": "2025-12-13T13:34:34.745780+00:00",
        "meta_object_name": "EUTELSAT 3B",
        "meta_object_id": "2014-030A",
        "meta_epoch": "2025-12-12T22:03:19.485792",
        "meta_mean_motion": 1.00270725,
        "meta_eccentricity": 0.00045579,
        "meta_inclination": 0.0608,
        "meta_ra_of_asc_node": 349.8245,
        "meta_arg_of_pericenter": 240.4306,
        "meta_mean_anomaly": 185.5307,
        "meta_ephemeris_type": 0,
        "meta_classification_type": "U",
        "meta_norad_cat_id": 39773,
        "meta_element_set_no": 999,
        "meta_rev_at_epoch": 4219,
        "meta_bstar": 0,
        "meta_mean_motion_dot": 3.2e-07,
        "meta_mean_motion_ddot": 0,
        "tle_line1": "1 39773U 14030A   25346.91897553  .00000032  00000+0  00000+0 0  9997",
        "tle_line2": "2 39773   0.0608 349.8245 0004557 240.4306 185.5307  1.00270725 42199"
      },
      "geometry": {
        "type": "Point",
        "coordinates": [
          -70.72855741678401,
          -0.06686364725005353
        ]
      }
    },
    {
      "type": "Feature",
      "properties": {
        "norad_id": 40425,
        "name": "EUTELSAT 115 WEST B",
        "group": "eutelsat",
        "lat": -0.00022957683806760734,
        "lon": 171.2473896415947,
        "alt_km": 35785.19923997678,
        "timestamp": "2025-12-13T13:34:34.745790+00:00",
        "meta_object_name": "EUTELSAT 115 WEST B",
        "meta_object_id": "2015-010B",
        "meta_epoch": "2025-12-12T23:12:23.635008",
        "meta_mean_motion": 1.00273842,
        "meta_eccentricity": 7.22e-06,
        "meta_inclination": 0.0199,
        "meta_ra_of_asc_node": 163.8927,
        "meta_arg_of_pericenter": 349.5019,
        "meta_mean_anomaly": 161.7193,
        "meta_ephemeris_type": 0,
        "meta_classification_type": "U",
        "meta_norad_cat_id": 40425,
        "meta_element_set_no": 999,
        "meta_rev_at_epoch": 3952,
        "meta_bstar": 0,
        "meta_mean_motion_dot": -1.3e-07,
        "meta_mean_motion_ddot": 0,
        "tle_line1": "1 40425U 15010B   25346.96694022 -.00000013  00000+0  00000+0 0  9993",
        "tle_line2": "2 40425   0.0199 163.8927 0000072 349.5019 161.7193  1.00273842 39526"
      },
      "geometry": {
        "type": "Point",
        "coordinates": [
          171.2473896415947,
          -0.00022957683806760734
        ]
      }
    },
    {
      "type": "Feature",
      "properties": {
        "norad_id": 40875,
        "name": "EUTELSAT 8 WEST B",
        "group": "eutelsat",
        "lat": -0.08169720847990394,
        "lon": -81.83945927005561,
        "alt_km": 35768.896902152694,
        "timestamp": "2025-12-13T13:34:34.745801+00:00",
        "meta_object_name": "EUTELSAT 8 WEST B",
        "meta_object_id": "2015-039B",
        "meta_epoch": "2025-12-12T23:42:50.717664",
        "meta_mean_motion": 1.00271675,
        "meta_eccentricity": 0.00042195,
        "meta_inclination": 0.0658,
        "meta_ra_of_asc_node": 8.7404,
        "meta_arg_of_pericenter": 254.0731,
        "meta_mean_anomaly": 166.8393,
        "meta_ephemeris_type": 0,
        "meta_classification_type": "U",
        "meta_norad_cat_id": 40875,
        "meta_element_set_no": 999,
        "meta_rev_at_epoch": 3779,
        "meta_bstar": 0,
        "meta_mean_motion_dot": -5.3e-07,
        "meta_mean_motion_ddot": 0,
        "tle_line1": "1 40875U 15039B   25346.98808701 -.00000053  00000+0  00000+0 0  9990",
        "tle_line2": "2 40875   0.0658   8.7404 0004219 254.0731 166.8393  1.00271675 37797"
      },
      "geometry": {
        "type": "Point",
        "coordinates": [
          -81.83945927005561,
          -0.08169720847990394
        ]
      }
    },
    {
      "type": "Feature",
      "properties": {
        "norad_id": 41310,
        "name": "EUTELSAT 9B",
        "group": "eutelsat",
        "lat": -0.04470016921754626,
        "lon": -64.84640110349471,
        "alt_km": 35768.653624466206,
        "timestamp": "2025-12-13T13:34:34.745811+00:00",
        "meta_object_name": "EUTELSAT 9B",
        "meta_object_id": "2016-005A",
        "meta_epoch": "2025-12-12T22:05:04.319232",
        "meta_mean_motion": 1.00270124,
        "meta_eccentricity": 0.00046412,
        "meta_inclination": 0.0455,
        "meta_ra_of_asc_node": 64.5005,
        "meta_arg_of_pericenter": 206.0746,
        "meta_mean_anomaly": 151.5545,
        "meta_ephemeris_type": 0,
        "meta_classification_type": "U",
        "meta_norad_cat_id": 41310,
        "meta_element_set_no": 999,
        "meta_rev_at_epoch": 3624,
        "meta_bstar": 0,
        "meta_mean_motion_dot": 7.4e-07,
        "meta_mean_motion_ddot": 0,
        "tle_line1": "1 41310U 16005A   25346.92018888  .00000074  00000+0  00000+0 0  9994",
        "tle_line2": "2 41310   0.0455  64.5005 0004641 206.0746 151.5545  1.00270124 36243"
      },
      "geometry": {
        "type": "Point",
        "coordinates": [
          -64.84640110349471,
          -0.04470016921754626
        ]
      }
    },
    {
      "type": "Feature",
      "properties": {
        "norad_id": 41382,
        "name": "EUTELSAT 65 WEST A",
        "group": "eutelsat",
        "lat": -0.038934402427560244,
        "lon": -139.0866420148969,
        "alt_km": 35779.16137267911,
        "timestamp": "2025-12-13T13:34:34.745821+00:00",
        "meta_object_name": "EUTELSAT 65 WEST A",
        "meta_object_id": "2016-014A",
        "meta_epoch": "2025-12-12T23:26:37.272192",
        "meta_mean_motion": 1.00271881,
        "meta_eccentricity": 0.00024973,
        "meta_inclination": 0.0524,
        "meta_ra_of_asc_node": 14.9138,
        "meta_arg_of_pericenter": 254.8827,
        "meta_mean_anomaly": 98.5763,
        "meta_ephemeris_type": 0,
        "meta_classification_type": "U",
        "meta_norad_cat_id": 41382,
        "meta_element_set_no": 999,
        "meta_rev_at_epoch": 3566,
        "meta_bstar": 0,
        "meta_mean_motion_dot": -2.64e-06,
        "meta_mean_motion_ddot": 0,
        "tle_line1": "1 41382U 16014A   25346.97682028 -.00000264  00000+0  00000+0 0  9993",
        "tle_line2": "2 41382   0.0524  14.9138 0002497 254.8827  98.5763  1.00271881 35661"
      },
      "geometry": {
        "type": "Point",
        "coordinates": [
          -139.0866420148969,
          -0.038934402427560244
        ]
      }
    },
    {
      "type": "Feature",
      "properties": {
        "norad_id": 41589,
        "name": "EUTELSAT 117 WEST B",
        "group": "eutelsat",
        "lat": 0.002280907743496191,
        "lon": 169.1576982726311,
        "alt_km": 35786.3179943588,
        "timestamp": "2025-12-13T13:34:34.745832+00:00",
        "meta_object_name": "EUTELSAT 117 WEST B",
        "meta_object_id": "2016-038B",
        "meta_epoch": "2025-12-12T23:11:46.195296",
        "meta_mean_motion": 1.00271866,
        "meta_eccentricity": 2.512e-05,
        "meta_inclination": 0.011,
        "meta_ra_of_asc_node": 153.7448,
        "meta_arg_of_pericenter": 269.9053,
        "meta_mean_anomaly": 249.2194,
        "meta_ephemeris_type": 0,
        "meta_classification_type": "U",
        "meta_norad_cat_id": 41589,
        "meta_element_set_no": 999,
        "meta_rev_at_epoch": 3479,
        "meta_bstar": 0,
        "meta_mean_motion_dot": 1e-08,
        "meta_mean_motion_ddot": 0,
        "tle_line1": "1 41589U 16038B   25346.96650689  .00000001  00000+0  00000+0 0  9993",
        "tle_line2": "2 41589   0.0110 153.7448 0000251 269.9053 249.2194  1.00271866 34790"
      },
      "geometry": {
        "type": "Point",
        "coordinates": [
          169.1576982726311,
          0.002280907743496191
        ]
      }
    },
    {
      "type": "Feature",
      "properties": {
        "norad_id": 42741,
        "name": "EUTELSAT 172B",
        "group": "eutelsat",
        "lat": -0.01222340134228904,
        "lon": 98.11760358115811,
        "alt_km": 35786.706618537784,
        "timestamp": "2025-12-13T13:34:34.745848+00:00",
        "meta_object_name": "EUTELSAT 172B",
        "meta_object_id": "2017-029B",
        "meta_epoch": "2025-12-12T19:26:06.936000",
        "meta_mean_motion": 1.00270135,
        "meta_eccentricity": 1.944e-05,
        "meta_inclination": 0.0458,
        "meta_ra_of_asc_node": 145.1933,
        "meta_arg_of_pericenter": 209.1575,
        "meta_mean_anomaly": 190.9157,
        "meta_ephemeris_type": 0,
        "meta_classification_type": "U",
        "meta_norad_cat_id": 42741,
        "meta_element_set_no": 999,
        "meta_rev_at_epoch": 3186,
        "meta_bstar": 0,
        "meta_mean_motion_dot": 6e-08,
        "meta_mean_motion_ddot": 0,
        "tle_line1": "1 42741U 17029B   25346.80980250  .00000006  00000+0  00000+0 0  9993",
        "tle_line2": "2 42741   0.0458 145.1933 0000194 209.1575 190.9157  1.00270135 31865"
      },
      "geometry": {
        "type": "Point",
        "coordinates": [
          98.11760358115811,
          -0.01222340134228904
        ]
      }
    }
  ]
}